id,name,country,region,wmo,icao,latitude,longitude,elevation,timezone,hourly_start,hourly_end,daily_start,daily_end,monthly_start,monthly_end
69002,Hunter Ligget / Hunter-Liggett,US,CA,69002,KHGT,35.9935,-121.2367,310.0,America/Los_Angeles,1964-07-15,1997-04-01,1964-07-15,1971-07-31,1964-01-01,1971-01-01
69007,Fort Ord / Blanco,US,CA,69007,KOAR,36.6815,-121.7617,42.0,America/Los_Angeles,1973-01-02,2025-02-06,1983-03-31,2022-04-25,2020-01-01,2022-01-01
69014,Irvine,US,CA,69014,KNZJ,33.6667,-117.7167,119.0,America/Los_Angeles,1989-01-01,1999-06-06,1945-03-01,1998-12-10,1945-01-01,1998-01-01
69015,Twentynine Palms / Sunfair Heights,US,CA,69015,KNXP,34.2962,-116.1622,625.0,America/Los_Angeles,1990-01-02,2025-02-05,1945-05-01,2022-04-24,1945-01-01,2021-01-01
69542,Monterey / Del Monte,US,CA,69542,KQNM,36.59,-121.86,152.0,America/Los_Angeles,2001-11-01,2002-08-20,,,,
71D38,Santa Monica Municipal Airport,US,CA,,KSMO,34.0158,-118.4514,53.0,America/Los_Angeles,2022-04-23,2025-02-06,2022-04-24,2022-04-25,,
72004,Stevenson Ranch,US,CA,72004,K3A6,34.37,-118.57,427.0,America/Los_Angeles,2004-02-24,2011-09-04,2004-02-26,2010-08-28,,
72281,"El Centro, Naval Air Facility",US,CA,72281,KNJK,32.8167,-115.65,-13.0,America/Los_Angeles,1984-04-13,2025-02-06,1945-02-01,2025-02-01,1945-01-01,2022-01-01
72286,Riverside / March Air Force Base,US,CA,72286,KRIV,33.9,-117.25,469.0,America/Los_Angeles,1933-01-01,2025-02-06,1936-02-16,2025-02-02,1936-01-01,2022-01-01
72288,Burbank-Glendale-Pasadena,US,CA,72288,KBUR,34.2,-118.3667,236.0,America/Los_Angeles,1943-06-01,2025-02-06,1943-06-02,2025-02-02,1943-01-01,2022-01-01
72289,Mount Wilson,US,CA,72289,KMWS,34.2333,-118.0667,1739.0,America/Los_Angeles,1950-01-01,2025-02-06,2010-03-23,2015-05-12,,
72290,San Diego International Airport,US,CA,72290,KSAN,32.7333,-117.1833,5.0,America/Los_Angeles,1942-01-01,2025-02-06,1939-07-01,2025-02-02,1939-01-01,2022-01-01
72291,San Nicolas Island,US,CA,72291,KNSI,33.2333,-119.4667,154.0,America/Los_Angeles,1943-06-16,2025-02-06,1933-08-22,2022-04-24,1933-01-01,2021-01-01
72292,Avalon Catalina Airport,US,CA,72292,KAVX,33.4,-118.4167,488.0,America/Los_Angeles,1943-06-12,2025-02-06,1943-06-13,2025-02-02,1943-01-01,2022-01-01
72293,MCAS Miramar,US,CA,72293,KNKX,32.8667,-117.15,146.0,America/Los_Angeles,2005-04-01,2025-02-06,1947-07-01,2024-07-21,1947-01-01,2022-01-01
72295,Los Angeles Airport,US,CA,72295,KLAX,33.9333,-118.3833,38.0,America/Los_Angeles,1944-01-01,2025-02-06,1944-01-01,2025-02-03,1944-01-01,2022-01-01
72297,Long Beach Airport,US,CA,72297,KLGB,33.8167,-118.15,17.0,America/Los_Angeles,1943-01-01,2025-02-06,1943-01-01,2025-02-03,1943-01-01,2022-01-01
72380,Needles / Parker Junction,US,CA,72380,KEED,34.7663,-114.6233,300.0,America/Los_Angeles,1977-02-17,2025-02-06,1977-03-09,2022-04-24,2001-01-01,2022-01-01
72381,Edwards Air Force Base,US,CA,72381,KEDW,34.9167,-117.9,702.0,America/Los_Angeles,1941-12-01,2025-02-06,1941-12-21,2022-04-24,1942-01-01,2020-01-01
72382,Palmdale Prod Flight Plant,US,CA,72382,KPMD,34.6333,-118.0833,775.0,America/Los_Angeles,1973-01-01,2025-02-06,1934-01-02,2025-02-02,1934-01-01,2022-01-01
72383,Sandberg,US,CA,72383,KSDB,34.75,-118.7167,1379.0,America/Los_Angeles,1973-01-01,2025-02-06,1934-07-01,2025-02-02,1934-01-01,2022-01-01
72384,Bakersfield Meadows Field,US,CA,72384,KBFL,35.4333,-119.05,155.0,America/Los_Angeles,1941-10-01,2025-02-06,1937-10-01,2025-02-02,1937-01-01,2022-01-01
72389,Fresno Air Terminal,US,CA,72389,KFAT,36.7833,-119.7167,101.0,America/Los_Angeles,1941-12-04,2025-02-06,1941-12-04,2025-02-03,1942-01-01,2022-01-01
72390,Point Piedras Blanca,US,CA,72390,K87Q,35.65,-121.2833,17.0,America/Los_Angeles,1999-01-01,2005-04-07,1998-01-07,2005-05-27,1998-01-01,2005-01-01
72391,"Nawcwpns Point Mugu, Ca",US,CA,72391,KNTD,34.1167,-119.1167,4.0,America/Los_Angeles,1973-01-01,2025-02-06,1946-03-01,2025-02-01,1946-01-01,2022-01-01
72392,Santa Barbara / La Patera,US,CA,72392,KSBA,34.4262,-119.8415,4.0,America/Los_Angeles,1973-01-01,2025-02-06,1941-01-02,2025-02-02,1941-01-01,2022-01-01
72393,"Lompoc, Vandenberg Air Force Base",US,CA,72393,KVBG,34.7167,-120.5667,112.0,America/Los_Angeles,2006-01-01,2025-02-06,1951-10-01,2022-04-25,1951-01-01,2021-01-01
72394,Santa Maria Public Airport,US,CA,72394,KSMX,34.9,-120.4667,79.0,America/Los_Angeles,1973-01-01,2025-02-06,1948-01-01,2025-02-02,1948-01-01,2022-01-01
72480,Bishop Airport,US,CA,72480,KBIH,37.3667,-118.3667,1256.0,America/Los_Angeles,1943-01-16,2025-02-06,1895-01-04,2025-02-02,1895-01-01,2022-01-01
72481,Merced / Castle Air Force Base,US,CA,72481,KMER,37.3667,-120.5667,57.0,America/Los_Angeles,1942-01-01,2025-02-05,1942-01-20,2022-04-25,1942-01-01,2022-01-01
72482,Leisure Town,US,CA,72482,KVCB,38.36,-121.94,34.0,America/Los_Angeles,2006-01-01,2025-02-06,2006-01-04,2022-04-24,2008-01-01,2021-01-01
72483,Sacramento Executive Airport,US,CA,72483,KSAC,38.5,-121.5,6.0,America/Los_Angeles,1973-01-01,2025-02-06,1941-11-10,2025-02-02,1941-01-01,2022-01-01
72491,"Monterey / Naf, Ca.",US,CA,72491,,36.6,-121.85,46.0,America/Los_Angeles,,,1945-03-01,1969-01-31,1945-01-01,1969-01-01
72492,Stockton Metropolitan Airport,US,CA,72492,KSCK,37.9,-121.2333,9.0,America/Los_Angeles,1941-01-03,2025-02-06,1941-02-20,2025-02-03,1941-01-01,2022-01-01
72493,Metro Oakland International  Airport,US,CA,72493,KOAK,37.7167,-122.2333,2.0,America/Los_Angeles,1943-01-01,2025-02-06,1943-01-02,2025-02-02,1943-01-01,2022-01-01
72494,San Francisco Airport,US,CA,72494,KSFO,37.6167,-122.3667,3.0,America/Los_Angeles,1973-01-01,2025-02-06,1945-07-01,2025-02-02,1945-01-01,2022-01-01
72495,Farallon Island,US,CA,72495,K50Q,37.7,-123.0,12.0,America/Los_Angeles,,,1999-06-06,2025-02-02,1999-01-01,2022-01-01
72497,Chico,US,CA,72497,KCIC,39.7954,-121.8584,73.0,America/Los_Angeles,2006-01-01,2025-02-05,2003-08-17,2025-02-02,2003-01-01,2022-01-01
72584,Susanville / Johnstonville,US,CA,72584,KSVE,40.3757,-120.5727,1265.0,America/Los_Angeles,1977-03-01,2025-02-06,2016-12-22,2022-04-25,2020-01-01,2022-01-01
72585,Hayward / Russell City,US,CA,72585,KHWD,37.6589,-122.1218,16.0,America/Los_Angeles,2000-01-01,2025-02-06,1998-09-19,2025-02-03,1998-01-01,2022-01-01
72591,Red Bluff Municipal Airport,US,CA,72591,KRBL,40.15,-122.25,106.0,America/Los_Angeles,1973-01-01,2025-02-06,1892-01-01,2025-02-03,1892-01-01,2022-01-01
72592,Redding Municipal Airport,US,CA,72592,KRDD,40.5,-122.2833,153.0,America/Los_Angeles,1992-01-01,2025-02-06,1986-09-01,2025-02-03,1986-01-01,2022-01-01
72593,Salinas / Spreckels Junction,US,CA,72593,KSNS,36.6628,-121.6064,26.0,America/Los_Angeles,1941-08-05,2025-02-06,1930-06-14,2025-02-03,1930-01-01,2022-01-01
72594,Eureka,US,CA,72594,KEKA,40.8,-124.1667,13.0,America/Los_Angeles,2006-01-01,2024-12-04,1941-12-01,2025-02-03,1941-01-01,2022-01-01
72751,Beale Afb / Oroville Junction,US,CA,72751,,39.4961,-121.6317,53.0,America/Los_Angeles,2022-04-19,2022-04-23,2008-07-30,2025-02-03,2008-01-01,2022-01-01
74500,"Sheridan, Ca",US,CA,74500,KBAB,39.0,-121.3333,0.0,America/Los_Angeles,1959-07-01,2025-02-06,1959-07-02,2022-04-24,1959-01-01,2021-01-01
74505,Monterey / Pacific Grove Acres,US,CA,74505,,36.6333,-121.9333,6.0,America/Los_Angeles,,,2008-08-15,2025-02-03,2008-01-01,2022-01-01
74506,Alameda Naval Air Station,US,CA,74506,KNGZ,37.7833,-122.3167,4.0,America/Los_Angeles,1973-01-01,1997-01-01,1945-03-01,1996-12-31,1945-01-01,1996-01-01
74509,Moffett Field,US,CA,74509,KNUQ,37.4333,-122.05,10.0,America/Los_Angeles,1973-01-01,2025-02-06,1945-03-01,2022-04-25,1945-01-01,2022-01-01
74516,Fairfield / Travis Air Force Base,US,CA,74516,KSUU,38.2667,-121.95,19.0,America/Los_Angeles,1943-08-11,2025-02-06,1943-08-12,2023-01-07,1943-01-01,2021-01-01
74611,"Fort Irwin/Barstow, Bicycle Lake Army Airfield",US,CA,74611,KBYS,35.2833,-116.6167,716.0,America/Los_Angeles,2005-08-14,2025-02-06,2006-05-07,2022-04-24,2017-01-01,2021-01-01
74612,Naws China Lake,US,CA,74612,KNID,35.6833,-117.7,696.0,America/Los_Angeles,1973-01-01,2025-02-06,1944-02-01,2025-01-15,1944-01-01,2022-01-01
74618,Cuddleback Gunnery Range,US,CA,74618,K4CB,35.2667,-117.4333,864.0,America/Los_Angeles,1977-01-18,1982-09-10,,,,
74702,Lemoore Naval Air Station,US,CA,74702,KNLC,36.3333,-119.95,71.0,America/Los_Angeles,1961-07-01,2025-02-06,1961-07-01,2025-02-02,1961-01-01,2022-01-01
8RXA6,Ontario International Airport,US,CA,,KONT,34.0532,-117.5768,287.0,America/Los_Angeles,2022-04-23,2025-02-06,2022-04-24,2022-04-26,,
BFY6K,Concord Buchanan Field,US,CA,,KCCR,37.9917,-122.0519,7.0,America/Los_Angeles,2022-04-23,2025-02-06,2022-04-24,2022-04-26,,
FSE8R,Auburn Municipal Airport,US,CA,,KAUN,38.9554,-121.0864,467.0,America/Los_Angeles,2022-04-23,2025-02-06,2022-04-23,2022-04-24,,
K1O50,Montague / Horizon Hills Mobile Home Park,US,CA,,K1O5,41.7304,-122.5456,770.0,America/Los_Angeles,1948-01-01,1996-03-12,1948-01-02,1949-12-31,1948-01-01,1949-01-01
K9L20,Edwards Afb / North Edwards,US,CA,,K9L2,34.9908,-117.8631,701.0,America/Los_Angeles,2006-01-01,2025-02-06,2006-01-04,2022-03-09,2006-01-01,2016-01-01
KAAT0,Alturas / Juniper,US,CA,,KAAT,41.483,-120.5654,1334.0,America/Los_Angeles,2006-01-01,2025-02-06,2006-01-01,2022-04-23,2006-01-01,2021-01-01
KACV0,Arcata / Clam Beach,US,CA,,KACV,40.9781,-124.1086,68.0,America/Los_Angeles,1973-01-01,2025-02-06,1973-01-01,2022-04-24,1981-01-01,2022-01-01
KAJO0,Corona,US,CA,,KAJO,33.8977,-117.6024,163.0,America/Los_Angeles,2006-09-07,2025-02-06,2006-09-08,2022-04-24,2007-01-01,2021-01-01
KAPC0,Napa / Middleton,US,CA,,KAPC,38.2132,-122.2807,11.0,America/Los_Angeles,2000-01-01,2025-02-06,2000-01-02,2022-04-24,2001-01-01,2022-01-01
KAPV0,Apple Valley / Bell Mountain,US,CA,,KAPV,34.5753,-117.1862,933.0,America/Los_Angeles,1973-06-22,2025-02-06,,,,
KBAN0,Bridgeport / Sonora Junction,US,CA,,KBAN,38.3557,-119.5188,2057.0,America/Los_Angeles,2009-08-27,2025-02-06,2009-08-28,2022-04-24,2012-01-01,2021-01-01
KBLH0,Blythe / Mesa Verde,US,CA,,KBLH,33.6192,-114.7169,122.0,America/Los_Angeles,1942-06-13,2025-02-06,1942-06-30,2022-04-24,1942-01-01,2022-01-01
KBLU0,Blue Canyon,US,CA,,KBLU,39.275,-120.7097,1611.0,America/Los_Angeles,1973-01-01,2025-02-06,1973-01-02,2022-04-24,1981-01-01,2022-01-01
KC830,Byron,US,CA,,KC83,37.8284,-121.6258,24.0,America/Los_Angeles,2020-01-14,2025-02-06,2020-01-14,2022-04-24,2020-01-01,2022-01-01
KCCB0,Cable Arpt / College Heights,US,CA,,KCCB,34.1116,-117.6874,440.0,America/Los_Angeles,2017-12-07,2025-02-06,2017-12-07,2022-04-24,2020-01-01,2022-01-01
KCEC0,Crescent City / Crescent City North,US,CA,,KCEC,41.7802,-124.2365,19.0,America/Los_Angeles,1973-01-01,2025-02-06,1992-08-13,2022-04-24,2005-01-01,2022-01-01
KCMA0,Camarillo / Springville,US,CA,,KCMA,34.2137,-119.0944,24.0,America/Los_Angeles,2005-01-01,2025-02-05,2005-01-01,2022-04-24,2005-01-01,2022-01-01
KCNO0,Chino,US,CA,,KCNO,33.9748,-117.6365,198.0,America/Los_Angeles,2006-01-01,2025-02-06,2006-01-01,2022-04-24,2006-01-01,2021-01-01
KCPU0,San Andreas / Fourth Crossing,US,CA,,KCPU,38.1461,-120.6482,405.0,America/Los_Angeles,2016-05-26,2025-02-06,2016-05-27,2022-04-24,2017-01-01,2022-01-01
KCQT0,Los Angeles / Jefferson,US,CA,,KCQT,34.0167,-118.2833,56.0,America/Los_Angeles,2000-01-01,2024-05-20,2000-01-01,2022-04-24,2000-01-01,2021-01-01
KCRQ0,Carlsbad / Rancho Carlsbad Trailer Park,US,CA,,KCRQ,33.1283,-117.2801,101.0,America/Los_Angeles,2006-01-01,2025-02-06,2006-01-01,2022-04-24,2006-01-01,2021-01-01
KCVH0,Hollister / Cottage Corners,US,CA,,KCVH,36.8933,-121.4103,70.0,America/Los_Angeles,2009-02-01,2025-02-06,2009-02-01,2022-04-24,2009-01-01,2022-01-01
KCZZ0,Campo,US,CA,,KCZZ,32.6167,-116.4667,802.0,America/Los_Angeles,2006-01-01,2020-10-26,2006-01-01,2020-10-25,2006-01-01,2020-01-01
KDAG0,Daggett / Minneola,US,CA,,KDAG,34.8537,-116.7867,588.0,America/Los_Angeles,1949-01-01,2025-02-06,1949-01-01,2022-04-24,1949-01-01,2021-01-01
KDLO0,Delano / Delano Mobile Home Park,US,CA,,KDLO,35.7456,-119.2365,96.0,America/Los_Angeles,2020-01-14,2025-02-06,2020-01-14,2022-04-24,2020-01-01,2021-01-01
KDVO0,Novato / Burdell,US,CA,,KDVO,38.1436,-122.5561,1.0,America/Los_Angeles,2014-07-31,2025-02-06,2014-07-31,2022-04-24,2015-01-01,2022-01-01
KDWA0,Davis / Plainfield,US,CA,,KDWA,38.5794,-121.8569,31.0,America/Los_Angeles,2020-09-23,2025-02-06,2020-09-23,2022-04-24,2020-01-01,2022-01-01
KE160,San Martin,US,CA,,KE16,37.0816,-121.5968,86.0,America/Los_Angeles,2011-10-01,2025-02-06,2011-10-01,2022-04-24,2012-01-01,2022-01-01
KEDU0,Davis / Briggston (Historical),US,CA,,KEDU,38.5315,-121.7865,21.0,America/Los_Angeles,2008-07-21,2025-02-06,2008-07-22,2022-04-24,2013-01-01,2022-01-01
KEMT0,El Monte / Hayes,US,CA,,KEMT,34.086,-118.0348,90.0,America/Los_Angeles,2006-01-01,2025-02-06,,,,
KF700,Murrieta/Temecula / Murrieta Hot Springs (Historical),US,CA,,KF70,33.5742,-117.1285,412.0,America/Los_Angeles,2020-01-14,2025-02-06,2020-01-14,2022-04-24,2020-01-01,2022-01-01
KFCH0,Fresno / West Park,US,CA,,KFCH,36.7321,-119.8203,85.0,America/Los_Angeles,1995-04-23,2024-09-19,1995-05-06,2022-03-05,,
KFOT0,Fortuna / Alton,US,CA,,KFOT,40.5539,-124.1327,120.0,America/Los_Angeles,2011-09-21,2025-02-06,2011-09-22,2022-04-24,2012-01-01,2022-01-01
KFUL0,Fullerton / Fuller Park,US,CA,,KFUL,33.872,-117.9798,29.0,America/Los_Angeles,2006-01-01,2025-02-06,2006-01-01,2022-04-24,2006-01-01,2022-01-01
KGOO0,Grass Valley / Forest Knolls,US,CA,,KGOO,39.224,-121.0031,961.0,America/Los_Angeles,2011-09-21,2025-02-06,2011-09-22,2022-04-24,2020-01-01,2022-01-01
KGXA0,Palmdale / El Mirage,US,CA,,KGXA,34.5666,-117.6704,923.0,America/Los_Angeles,2011-08-25,2025-02-06,2011-08-26,2021-12-24,2017-01-01,2020-01-01
KHAF0,Half Moon Bay / El Granada Mobile Home Park,US,CA,,KHAF,37.5134,-122.5012,20.0,America/Los_Angeles,2009-07-17,2025-02-06,2009-07-18,2022-04-24,2011-01-01,2022-01-01
KHHR0,Hawthorne / Cypave,US,CA,,KHHR,33.9228,-118.3352,20.0,America/Los_Angeles,2006-01-01,2025-02-06,2006-01-01,2022-04-24,2006-01-01,2022-01-01
KHJO0,Hanford / Shell,US,CA,,KHJO,36.3167,-119.6277,73.0,America/Los_Angeles,2006-01-01,2025-02-06,2006-01-01,2022-04-24,2006-01-01,2022-01-01
KHMT0,Hemet / Egan,US,CA,,KHMT,33.734,-117.0225,461.0,America/Los_Angeles,2020-01-14,2025-02-06,2020-01-14,2022-04-24,2020-01-01,2022-01-01
KIPL0,Imperial,US,CA,,KIPL,32.8342,-115.5787,-16.0,America/Los_Angeles,2006-01-01,2025-02-06,2006-01-01,2022-04-24,2006-01-01,2021-01-01
KIYK0,Inyokern,US,CA,,KIYK,35.6587,-117.8295,749.0,America/Los_Angeles,2006-01-01,2025-02-06,2006-10-21,2006-10-21,,
KIZA0,Santa Ynez,US,CA,,KIZA,34.6068,-120.0756,205.0,America/Los_Angeles,2006-01-05,2025-02-06,2009-09-16,2022-04-24,2015-01-01,2022-01-01
KJAQ0,Jackson / Sutter Hill,US,CA,,KJAQ,38.3768,-120.7939,515.0,America/Los_Angeles,2020-01-14,2025-02-06,2020-01-14,2022-04-24,2020-01-01,2022-01-01
KL080,Borrego Springs,US,CA,,KL08,33.259,-116.321,159.0,America/Los_Angeles,2020-01-14,2025-02-06,2020-01-14,2022-04-24,2020-01-01,2022-01-01
KL180,Fallbrook / Deluz,US,CA,,KL18,33.3542,-117.2509,216.0,America/Los_Angeles,2020-01-14,2025-02-06,2020-01-14,2022-04-24,2020-01-01,2022-01-01
KL350,Big Bear City,US,CA,,KL35,34.2638,-116.856,2058.0,America/Los_Angeles,2014-07-31,2025-02-06,2014-08-06,2022-04-24,2020-01-01,2022-01-01
KL520,Oceano / Oceano Beach,US,CA,,KL52,35.1015,-120.6224,4.0,America/Los_Angeles,2020-01-14,2023-04-09,2020-01-14,2022-04-24,2020-01-01,2022-01-01
KLHM0,Lincoln / Ewing,US,CA,,KLHM,38.9092,-121.3513,37.0,America/Los_Angeles,2009-05-10,2025-02-06,2009-05-22,2022-04-24,2009-01-01,2022-01-01
KLMO0,Lemoore / Marnett,US,CA,,KLMO,40.1643,-105.1637,1541.0,America/Denver,2010-12-02,2025-02-06,2010-12-17,2022-04-24,2011-01-01,2022-01-01
KLVK0,Livermore / East Pleasanton,US,CA,,KLVK,37.6934,-121.8204,122.0,America/Los_Angeles,2000-01-01,2025-02-06,2000-01-02,2022-04-24,2000-01-01,2021-01-01
KMAE0,Madera / Notarb,US,CA,,KMAE,36.9886,-120.1124,78.0,America/Los_Angeles,2006-01-01,2025-02-06,2006-01-01,2022-04-24,2006-01-01,2021-01-01
KMCC0,Sacramento / McClellan Park,US,CA,,KMCC,38.6676,-121.4006,23.0,America/Los_Angeles,1939-11-09,2025-02-06,1941-02-09,2022-04-24,1941-01-01,2022-01-01
KMCE0,Merced,US,CA,,KMCE,37.2848,-120.5139,47.0,America/Los_Angeles,2006-01-01,2025-02-06,2006-01-01,2022-04-24,2006-01-01,2022-01-01
KMHR0,Sacramento / Mather Field,US,CA,,KMHR,38.5553,-121.2973,30.0,America/Los_Angeles,2004-01-01,2025-02-06,2010-06-11,2022-04-24,2010-01-01,2022-01-01
KMHV0,Mojave / Chaffee,US,CA,,KMHV,35.0586,-118.1506,854.0,America/Los_Angeles,2006-01-02,2025-02-06,2011-01-14,2022-04-21,2011-01-01,2022-01-01
KMMH0,Mammoth / Whitmore Hot Springs,US,CA,,KMMH,37.6241,-118.8388,2175.0,America/Los_Angeles,2006-01-03,2025-02-06,2008-09-27,2022-04-24,2009-01-01,2022-01-01
KMOD0,Modesto City / Riverside,US,CA,,KMOD,37.6258,-120.9544,30.0,America/Los_Angeles,1973-01-01,2025-02-06,1998-05-16,2022-04-24,1999-01-01,2021-01-01
KMYV0,Marysville / Alicia,US,CA,,KMYV,39.0978,-121.5698,20.0,America/Los_Angeles,2006-01-01,2025-02-06,2006-01-03,2022-04-24,2008-01-01,2021-01-01
KNFG0,Oceanside / Chappo,US,CA,,KNFG,33.3011,-117.3551,24.0,America/Los_Angeles,1973-01-02,2025-02-06,1977-08-23,2022-04-24,1987-01-01,2020-01-01
KNRC0,Crows Landing / Jet,US,CA,,KNRC,37.408,-121.1094,51.0,America/Los_Angeles,1973-01-02,1994-03-09,,,,
KNRS0,Imperial Beach,US,CA,,KNRS,32.5667,-117.1167,7.0,America/Los_Angeles,1973-01-01,2025-02-06,1973-01-12,2022-04-24,2008-01-01,2018-01-01
KNUC0,San Clemente / Avalon,US,CA,,KNUC,33.0227,-118.5885,56.0,America/Los_Angeles,1943-06-10,2025-02-06,1943-06-10,2022-04-23,1945-01-01,1986-01-01
KNXF0,Oceanside / Las Flores,US,CA,,KNXF,33.2856,-117.4565,27.0,America/Los_Angeles,2009-10-29,2024-07-22,2009-10-30,2022-04-24,,
KO050,Chester,US,CA,,KO05,40.2824,-121.2412,1382.0,America/Los_Angeles,2021-06-22,2025-02-06,2021-06-22,2022-04-24,2021-01-01,2022-01-01
KO220,Columbia / Springfield,US,CA,,KO22,38.0304,-120.4146,646.0,America/Los_Angeles,2009-01-20,2025-02-06,2009-01-21,2022-04-24,2011-01-01,2022-01-01
KO540,Weaverville,US,CA,,KO54,40.7473,-122.9223,716.0,America/Los_Angeles,2010-10-30,2025-02-06,2010-10-31,2020-08-12,2011-01-01,2020-01-01
KO690,Petaluma / East Petaluma,US,CA,,KO69,38.2578,-122.6053,27.0,America/Los_Angeles,2014-07-31,2025-02-06,2014-08-01,2022-04-24,2020-01-01,2022-01-01
KO860,Trinity Center,US,CA,,KO86,40.9828,-122.6937,729.0,America/Los_Angeles,2014-07-31,2025-02-06,2014-08-01,2022-01-22,2020-01-01,2021-01-01
KOKB0,Oceanside / El Camino 76 Trailer Park,US,CA,,KOKB,33.218,-117.3515,9.0,America/Los_Angeles,2006-01-01,2025-02-06,2006-01-01,2022-04-22,2006-01-01,2021-01-01
KOXR0,Oxnard,US,CA,,KOXR,34.2008,-119.2072,14.0,America/Los_Angeles,1944-04-01,2025-02-06,1944-04-02,2022-04-24,1944-01-01,2022-01-01
KPAO0,Palo Alto / Runnymeade (Historical),US,CA,,KPAO,37.4611,-122.1151,2.0,America/Los_Angeles,2006-01-01,2025-02-06,,,,
KPOC0,La Verne,US,CA,,KPOC,34.0916,-117.7818,309.0,America/Los_Angeles,2006-01-03,2025-02-06,,,,
KPRB0,Paso Robles / Estrella,US,CA,,KPRB,35.6729,-120.6271,256.0,America/Los_Angeles,1941-12-01,2025-02-06,1942-02-02,2022-04-24,1942-01-01,2022-01-01
KPSP0,Palm Springs,US,CA,,KPSP,33.8297,-116.5067,145.0,America/Los_Angeles,2006-01-01,2025-02-06,2006-01-01,2022-04-24,2006-01-01,2021-01-01
KPTV0,Porterville / Lois,US,CA,,KPTV,36.0296,-119.0627,135.0,America/Los_Angeles,2006-01-01,2025-02-06,2006-01-01,2022-04-24,2006-01-01,2022-01-01
KPVF0,Placerville / Smithflat,US,CA,,KPVF,38.7242,-120.7533,788.0,America/Los_Angeles,2009-07-11,2025-02-06,2009-07-11,2022-04-24,2020-01-01,2022-01-01
KRAL0,Riverside / Arlanza,US,CA,,KRAL,33.9519,-117.4451,250.0,America/Los_Angeles,2006-01-01,2025-02-06,2006-01-01,2022-04-24,2006-01-01,2021-01-01
KRHV0,San Jose / Alum Rock,US,CA,,KRHV,37.3329,-121.8198,41.0,America/Los_Angeles,2006-01-01,2025-02-06,,,,
KRNM0,Ramona / Rosemont,US,CA,,KRNM,33.0392,-116.9153,425.0,America/Los_Angeles,2006-01-01,2025-02-06,2006-01-01,2022-04-24,2006-01-01,2021-01-01
KSBD0,San Bernardino / North Norton,US,CA,,KSBD,34.0954,-117.2349,353.0,America/Los_Angeles,1943-01-06,2025-02-06,1943-03-17,2022-04-24,1943-01-01,2022-01-01
KSBP0,San Luis Obispo / Steele (Historical),US,CA,,KSBP,35.2373,-120.6426,65.0,America/Los_Angeles,2006-01-01,2025-02-06,2006-01-01,2022-04-24,2006-01-01,2021-01-01
KSDM0,San Diego / Bandini,US,CA,,KSDM,32.5723,-116.9802,160.0,America/Tijuana,2006-01-01,2025-02-05,2006-01-01,2022-04-24,2006-01-01,2021-01-01
KSEE0,San Diego / Town And Country Mobile Home Park,US,CA,,KSEE,32.8262,-116.9724,118.0,America/Los_Angeles,2006-01-02,2025-02-06,2013-10-23,2022-04-24,2014-01-01,2022-01-01
KSIY0,Montague / Snowden,US,CA,,KSIY,41.7814,-122.4681,808.0,America/Los_Angeles,1950-01-01,2025-02-06,1950-01-02,2022-04-24,1950-01-01,2021-01-01
KSJC0,San Jose / Santa Clara Trailer Village,US,CA,,KSJC,37.3627,-121.9291,19.0,America/Los_Angeles,1973-01-01,2025-02-06,1973-01-01,2022-04-24,2000-01-01,2022-01-01
KSLI0,Los Alamitos,US,CA,,KSLI,33.79,-118.0514,10.0,America/Los_Angeles,2006-01-01,2025-02-06,2008-04-24,2022-04-24,2008-01-01,2021-01-01
KSMF0,Sacramento / Kiesel,US,CA,,KSMF,38.6954,-121.5908,8.0,America/Los_Angeles,1973-01-01,2025-02-06,1973-01-01,2022-04-24,1974-01-01,2022-01-01
KSNA0,Santa Ana / Paularino,US,CA,,KSNA,33.6757,-117.8682,17.0,America/Los_Angeles,1940-06-17,2025-02-06,1942-10-06,2022-04-24,1943-01-01,2021-01-01
KSQL0,San Carlos / Silver Penny Mobile Home Park,US,CA,,KSQL,37.5119,-122.2495,2.0,America/Los_Angeles,2006-01-01,2025-02-06,2019-03-04,2022-04-24,2020-01-01,2022-01-01
KSTS0,Santa Rosa / Shiloh,US,CA,,KSTS,38.509,-122.8129,39.0,America/Los_Angeles,2000-01-01,2025-02-06,2000-01-02,2022-04-24,2000-01-01,2022-01-01
KSZN0,Santa Cruz / Isla Vista,US,CA,,KSZN,34.0606,-119.9151,15.0,America/Los_Angeles,1973-01-03,1980-06-17,1976-03-15,1979-09-30,,
KTOA0,Torrance / Walteria,US,CA,,KTOA,33.8034,-118.3396,31.0,America/Los_Angeles,1944-06-01,2025-02-06,1944-06-02,1944-08-29,1944-01-01,1944-01-01
KTRK0,Truckee / Polaris,US,CA,,KTRK,39.32,-120.1396,1799.0,America/Los_Angeles,2006-01-01,2025-02-06,2009-04-21,2022-04-24,2020-01-01,2022-01-01
KTRM0,Thermal,US,CA,,KTRM,33.6267,-116.1597,-35.0,America/Los_Angeles,1943-07-12,2025-02-06,1943-07-13,2022-04-24,1943-01-01,2022-01-01
KTVL0,South Lake Tahoe / Tahoe Valley,US,CA,,KTVL,38.8939,-119.9953,1911.0,America/Los_Angeles,2000-01-02,2025-02-06,2000-10-19,2022-04-24,2001-01-01,2021-01-01
KUKI0,Ukiah / Asylum,US,CA,,KUKI,39.126,-123.2009,188.0,America/Los_Angeles,1973-01-01,2025-02-06,1973-01-01,2022-04-24,2005-01-01,2022-01-01
KVIS0,Visalia / Midvalley,US,CA,,KVIS,36.3187,-119.3929,90.0,America/Los_Angeles,2006-01-01,2025-02-06,2006-01-18,2022-04-24,2006-01-01,2022-01-01
KVNY0,Van Nuys / Raymer,US,CA,,KVNY,34.2098,-118.49,245.0,America/Los_Angeles,1942-12-11,2025-02-06,1942-12-12,2022-04-24,1943-01-01,2022-01-01
KWHP0,Los Angeles / Pacoima,US,CA,,KWHP,34.2593,-118.4134,306.0,America/Los_Angeles,2006-01-01,2025-02-06,,,,
KWJF0,Lancaster / Antelope Acres,US,CA,,KWJF,34.7411,-118.2186,717.0,America/Los_Angeles,1974-06-01,2025-02-06,1974-06-03,2022-04-24,1975-01-01,2022-01-01
KWVI0,Watsonville / Monterey Vista Mobile Home Park,US,CA,,KWVI,36.9357,-121.7896,50.0,America/Los_Angeles,2006-01-01,2025-02-06,2006-01-01,2022-04-24,2006-01-01,2021-01-01
LQO8Z,Mount Shasta,US,CA,,KMHS,41.3149,-122.317,1080.0,America/Los_Angeles,2022-04-23,2025-02-06,2022-04-24,2022-04-24,,
M44D9,Monterey Regional Airport,US,CA,,KMRY,36.5905,-121.8487,77.0,America/Los_Angeles,2022-04-23,2025-02-06,2022-04-24,2022-04-24,,
NG9G1,Tehachapi Municipal Airport,US,CA,,KTSP,35.135,-118.4392,1220.0,America/Los_Angeles,2022-04-23,2025-02-06,2022-04-23,2022-04-24,,
Q5MJ7,Tracy Municipal Airport,US,CA,,KTCY,37.6889,-121.4416,58.0,America/Los_Angeles,2022-04-23,2025-02-06,2022-04-23,2022-04-24,,
QX6JS,Lompoc Airport,US,CA,,KLPC,34.6667,-120.4667,27.0,America/Los_Angeles,2022-04-23,2025-02-06,2022-04-24,2022-04-24,,
U9ANI,Julian CDF,US,CA,,,33.0833,-116.63,1285.0,America/Los_Angeles,,,1893-01-01,2024-11-30,1893-01-01,2022-01-01
ZGK9P,Victorville Airport,US,CA,,KVCV,34.5972,-117.3828,876.0,America/Los_Angeles,2022-04-23,2025-02-06,2022-04-23,2022-04-23,,
